[{"OBJECT_NAME":"STARLINK-11615 [DTC]","OBJECT_ID":"2025-053K","EPOCH":"2026-03-09T12:48:08.567136","MEAN_MOTION":15.7087916,"ECCENTRICITY":0.00023474,"INCLINATION":42.9992,"RA_OF_ASC_NODE":113.2881,"ARG_OF_PERICENTER":241.8239,"MEAN_ANOMALY":118.2391,"EPHEMERIS_TYPE":0,"CLASSIFICATION_TYPE":"U","NORAD_CAT_ID":63274,"ELEMENT_SET_NO":999,"REV_AT_EPOCH":5764,"BSTAR":0.0012645989,"MEAN_MOTION_DOT":0.00165364,"MEAN_MOTION_DDOT":0},{"OBJECT_NAME":"ISS OBJECT XT","OBJECT_ID":"1998-067XT","EPOCH":"2026-03-09T23:09:29.137248","MEAN_MOTION":15.69333449,"ECCENTRICITY":0.00047012,"INCLINATION":51.6253,"RA_OF_ASC_NODE":64.2319,"ARG_OF_PERICENTER":78.1098,"MEAN_ANOMALY":282.0426,"EPHEMERIS_TYPE":0,"CLASSIFICATION_TYPE":"U","NORAD_CAT_ID":66907,"ELEMENT_SET_NO":999,"REV_AT_EPOCH":1522,"BSTAR":0.0013746382,"MEAN_MOTION_DOT":0.00167047,"MEAN_MOTION_DDOT":0}]
